{
  "norad_id": 60747,
  "name": "2024-153C",
  "history": [
    {
      "epoch": "2026-03-28T23:01:28.571808Z",
      "apogee_km": 460.33320348427605,
      "perigee_km": 446.6433096326573,
      "latitude_deg": 6.672867920377196e-05,
      "longitude_deg": 54.826619063488444,
      "height_km": 455.5771365555764,
      "semi_major_axis_km": 6831.625256558466,
      "eccentricity": 0.00100195,
      "inclination_deg": 97.6647,
      "raan_deg": 226.568,
      "arg_perigee_deg": 81.6338,
      "mean_anomaly_deg": 278.6042,
      "mean_motion_rev_day": 15.37505609
    },
    {
      "epoch": "2026-03-29T05:16:20.847072Z",
      "apogee_km": 460.25035470568855,
      "perigee_km": 446.58451321599296,
      "latitude_deg": -9.827370917972797e-06,
      "longitude_deg": -38.87617445118983,
      "height_km": 455.38559779416664,
      "semi_major_axis_km": 6831.5544339608405,
      "eccentricity": 0.0010002,
      "inclination_deg": 97.6647,
      "raan_deg": 226.8396,
      "arg_perigee_deg": 80.5931,
      "mean_anomaly_deg": 279.6443,
      "mean_motion_rev_day": 15.37529518
    },
    {
      "epoch": "2026-03-30T04:42:04.150368Z",
      "apogee_km": 459.9841140600993,
      "perigee_km": 446.3979688512527,
      "latitude_deg": 3.09319362388531e-05,
      "longitude_deg": -30.249892012150106,
      "height_km": 454.7520806824468,
      "semi_major_axis_km": 6831.328041455676,
      "eccentricity": 0.0009944,
      "inclination_deg": 97.665,
      "raan_deg": 227.8585,
      "arg_perigee_deg": 77.0319,
      "mean_anomaly_deg": 283.2035,
      "mean_motion_rev_day": 15.3760595
    },
    {
      "epoch": "2026-03-30T07:49:29.600256Z",
      "apogee_km": 459.944373788795,
      "perigee_km": 446.37141059339865,
      "latitude_deg": 6.810055080929726e-05,
      "longitude_deg": -77.09832531869534,
      "height_km": 454.66249515314917,
      "semi_major_axis_km": 6831.294892191097,
      "eccentricity": 0.00099344,
      "inclination_deg": 97.6651,
      "raan_deg": 227.9944,
      "arg_perigee_deg": 76.529,
      "mean_anomaly_deg": 283.7061,
      "mean_motion_rev_day": 15.37617142
    },
    {
      "epoch": "2026-03-30T15:38:02.893632Z",
      "apogee_km": 459.87040696905933,
      "perigee_km": 446.2933594386923,
      "latitude_deg": 7.530316286801968e-05,
      "longitude_deg": 165.7818372672631,
      "height_km": 454.4577143858275,
      "semi_major_axis_km": 6831.2188832038755,
      "eccentricity": 0.00099375,
      "inclination_deg": 97.6653,
      "raan_deg": 228.334,
      "arg_perigee_deg": 75.4118,
      "mean_anomaly_deg": 284.8228,
      "mean_motion_rev_day": 15.37642805
    },
    {
      "epoch": "2026-03-30T21:52:53.198976Z",
      "apogee_km": 459.8024086346377,
      "perigee_km": 446.23900838124155,
      "latitude_deg": 1.9435455000038727e-05,
      "longitude_deg": 72.08737166213642,
      "height_km": 454.3023870297219,
      "semi_major_axis_km": 6831.15770850794,
      "eccentricity": 0.00099276,
      "inclination_deg": 97.6654,
      "raan_deg": 228.6057,
      "arg_perigee_deg": 74.5719,
      "mean_anomaly_deg": 285.6621,
      "mean_motion_rev_day": 15.3766346
    },
    {
      "epoch": "2026-03-31T21:18:29.497824Z",
      "apogee_km": 459.5620078162847,
      "perigee_km": 446.08998259713735,
      "latitude_deg": 3.261814028278124e-05,
      "longitude_deg": 80.7428236234534,
      "height_km": 453.7224532711547,
      "semi_major_axis_km": 6830.962995206711,
      "eccentricity": 0.0009861,
      "inclination_deg": 97.6657,
      "raan_deg": 229.6245,
      "arg_perigee_deg": 71.0271,
      "mean_anomaly_deg": 289.2041,
      "mean_motion_rev_day": 15.37729206
    },
    {
      "epoch": "2026-04-01T20:44:02.266368Z",
      "apogee_km": 459.33055240162594,
      "perigee_km": 445.94906063765484,
      "latitude_deg": 6.359635010144494e-05,
      "longitude_deg": 89.41292295019242,
      "height_km": 453.1580329568593,
      "semi_major_axis_km": 6830.776806519641,
      "eccentricity": 0.0009795,
      "inclination_deg": 97.6661,
      "raan_deg": 230.6432,
      "arg_perigee_deg": 67.4206,
      "mean_anomaly_deg": 292.8074,
      "mean_motion_rev_day": 15.37792078
    },
    {
      "epoch": "2026-04-02T20:09:30.875616Z",
      "apogee_km": 459.0679604336847,
      "perigee_km": 445.6938064179367,
      "latitude_deg": 3.347768718941743e-05,
      "longitude_deg": 98.10050783558891,
      "height_km": 452.54294356596466,
      "semi_major_axis_km": 6830.51788342581,
      "eccentricity": 0.000979,
      "inclination_deg": 97.6666,
      "raan_deg": 231.662,
      "arg_perigee_deg": 64.0531,
      "mean_anomaly_deg": 296.1721,
      "mean_motion_rev_day": 15.37879518
    },
    {
      "epoch": "2026-04-02T23:16:54.280416Z",
      "apogee_km": 459.005222968357,
      "perigee_km": 445.65903273006916,
      "latitude_deg": -2.3844935604576558e-05,
      "longitude_deg": 51.26053164789101,
      "height_km": 452.4721199058688,
      "semi_major_axis_km": 6830.469127849213,
      "eccentricity": 0.00097696,
      "inclination_deg": 97.6667,
      "raan_deg": 231.7978,
      "arg_perigee_deg": 63.7824,
      "mean_anomaly_deg": 296.4423,
      "mean_motion_rev_day": 15.37895984
    },
    {
      "epoch": "2026-04-03T21:08:35.755296Z",
      "apogee_km": 458.7067379915343,
      "perigee_km": 445.4561142448656,
      "latitude_deg": 1.0492642423929804e-05,
      "longitude_deg": 83.39129424929517,
      "height_km": 451.8830952001337,
      "semi_major_axis_km": 6830.2184261182,
      "eccentricity": 0.00097,
      "inclination_deg": 97.6669,
      "raan_deg": 232.7492,
      "arg_perigee_deg": 60.2528,
      "mean_anomaly_deg": 299.968,
      "mean_motion_rev_day": 15.37980657
    },
    {
      "epoch": "2026-04-04T20:33:54.222912Z",
      "apogee_km": 458.457509982034,
      "perigee_km": 445.267415020051,
      "latitude_deg": 4.8894965104770165e-05,
      "longitude_deg": 92.12134087961958,
      "height_km": 451.3218718735501,
      "semi_major_axis_km": 6829.999462501042,
      "eccentricity": 0.0009656,
      "inclination_deg": 97.6672,
      "raan_deg": 233.7681,
      "arg_perigee_deg": 56.5993,
      "mean_anomaly_deg": 303.6174,
      "mean_motion_rev_day": 15.38054617
    },
    {
      "epoch": "2026-04-05T15:18:06.204384Z",
      "apogee_km": 458.2815652069039,
      "perigee_km": 445.1148722755106,
      "latitude_deg": 2.2251751872440844e-05,
      "longitude_deg": 171.1173330223582,
      "height_km": 450.92293597095477,
      "semi_major_axis_km": 6829.8352187412065,
      "eccentricity": 0.00096391,
      "inclination_deg": 97.6674,
      "raan_deg": 234.5835,
      "arg_perigee_deg": 54.0398,
      "mean_anomaly_deg": 306.1739,
      "mean_motion_rev_day": 15.38110098
    },
    {
      "epoch": "2026-04-05T19:59:08.812896Z",
      "apogee_km": 458.22854794164414,
      "perigee_km": 445.07437536450016,
      "latitude_deg": 1.7730412091604216e-05,
      "longitude_deg": 100.86789705481341,
      "height_km": 450.8143718583804,
      "semi_major_axis_km": 6829.788461653072,
      "eccentricity": 0.000963,
      "inclination_deg": 97.6674,
      "raan_deg": 234.7873,
      "arg_perigee_deg": 53.3296,
      "mean_anomaly_deg": 306.8832,
      "mean_motion_rev_day": 15.38125893
    },
    {
      "epoch": "2026-04-06T06:54:54.507168Z",
      "apogee_km": 458.1352036140106,
      "perigee_km": 445.022285978318,
      "latitude_deg": 6.899262805054337e-05,
      "longitude_deg": -63.045656468955094,
      "height_km": 450.6013636131862,
      "semi_major_axis_km": 6829.7157447961645,
      "eccentricity": 0.00095999,
      "inclination_deg": 97.6675,
      "raan_deg": 235.263,
      "arg_perigee_deg": 51.6429,
      "mean_anomaly_deg": 308.5677,
      "mean_motion_rev_day": 15.38150458
    },
    {
      "epoch": "2026-04-07T14:08:26.854944Z",
      "apogee_km": 457.86468451668316,
      "perigee_km": 444.84794343997237,
      "latitude_deg": 6.867038360528503e-05,
      "longitude_deg": -171.35353428629384,
      "height_km": 450.01047786979774,
      "semi_major_axis_km": 6829.493313978327,
      "eccentricity": 0.00095298,
      "inclination_deg": 97.6676,
      "raan_deg": 236.6223,
      "arg_perigee_deg": 47.002,
      "mean_anomaly_deg": 313.2022,
      "mean_motion_rev_day": 15.38225603
    },
    {
      "epoch": "2026-04-07T20:23:08.695680Z",
      "apogee_km": 457.80835570415275,
      "perigee_km": 444.8173761691678,
      "latitude_deg": 6.82022585582365e-05,
      "longitude_deg": 94.98735739367059,
      "height_km": 449.89809708769815,
      "semi_major_axis_km": 6829.44986593666,
      "eccentricity": 0.0009511,
      "inclination_deg": 97.6676,
      "raan_deg": 236.894,
      "arg_perigee_deg": 46.0537,
      "mean_anomaly_deg": 314.1491,
      "mean_motion_rev_day": 15.38240282
    },
    {
      "epoch": "2026-04-08T15:07:12.934848Z",
      "apogee_km": 457.66159591109954,
      "perigee_km": 444.7377591825107,
      "latitude_deg": 3.751695229834169e-05,
      "longitude_deg": 174.0161968924546,
      "height_km": 449.5875405571158,
      "semi_major_axis_km": 6829.336677546805,
      "eccentricity": 0.0009462,
      "inclination_deg": 97.6676,
      "raan_deg": 237.7099,
      "arg_perigee_deg": 43.2585,
      "mean_anomaly_deg": 316.9401,
      "mean_motion_rev_day": 15.38278524
    },
    {
      "epoch": "2026-04-09T20:46:56.130816Z",
      "apogee_km": 457.3929024195095,
      "perigee_km": 444.62649558039993,
      "latitude_deg": -2.7630316562712606e-05,
      "longitude_deg": 89.1595437451856,
      "height_km": 449.14264719209154,
      "semi_major_axis_km": 6829.146698999954,
      "eccentricity": 0.0009347,
      "inclination_deg": 97.6675,
      "raan_deg": 239.0014,
      "arg_perigee_deg": 38.9757,
      "mean_anomaly_deg": 321.2159,
      "mean_motion_rev_day": 15.38342714
    }
  ]
}